[{"OBJECT_NAME":"STARLINK-36756","OBJECT_ID":"2026-032W","EPOCH":"2026-03-09T21:53:16.589184","MEAN_MOTION":15.7527509,"ECCENTRICITY":9.159e-5,"INCLINATION":97.2843,"RA_OF_ASC_NODE":255.4874,"ARG_OF_PERICENTER":102.7886,"MEAN_ANOMALY":257.3482,"EPHEMERIS_TYPE":0,"CLASSIFICATION_TYPE":"U","NORAD_CAT_ID":67817,"ELEMENT_SET_NO":999,"REV_AT_EPOCH":481,"BSTAR":0.0015459296,"MEAN_MOTION_DOT":0.00237869,"MEAN_MOTION_DDOT":0},{"OBJECT_NAME":"CZ-4B R\/B","OBJECT_ID":"2025-314B","EPOCH":"2026-03-09T17:50:42.473760","MEAN_MOTION":15.91792327,"ECCENTRICITY":0.00849963,"INCLINATION":97.3538,"RA_OF_ASC_NODE":150.3267,"ARG_OF_PERICENTER":114.2763,"MEAN_ANOMALY":246.7419,"EPHEMERIS_TYPE":0,"CLASSIFICATION_TYPE":"U","NORAD_CAT_ID":67301,"ELEMENT_SET_NO":999,"REV_AT_EPOCH":1092,"BSTAR":0.00075319096,"MEAN_MOTION_DOT":0.00343879,"MEAN_MOTION_DDOT":4.660623e-5}]
